start=new Date('2023-01-16T00:00:00.000Z').valueOf();
sats=[{"MEAN_ELEMENT_THEORY":"SGP4","CENTER_NAME":"EARTH","TLE_LINE1":"1 48101U 21027K   23015.90776676  .00001868  00000-0  14424-3 0  9996","SITE":"AFETR","RA_OF_ASC_NODE":"278.7093","BSTAR":"0.00014424000000","RCS_SIZE":"LARGE","REV_AT_EPOCH":"9941","MEAN_ANOMALY":"248.3187","NORAD_CAT_ID":"48101","FILE":"3748322","APOAPSIS":"548.357","EPOCH":"2023-01-15T21:47:11.048064","OBJECT_ID":"2021-027K","INCLINATION":"53.0550","PERIAPSIS":"546.040","GP_ID":"223148381","TIME_SYSTEM":"UTC","COUNTRY_CODE":"US","SEMIMAJOR_AXIS":"6925.333","PERIOD":"95.592","REF_FRAME":"TEME","MEAN_MOTION_DDOT":"0.0000000000000","OBJECT_TYPE":"PAYLOAD","ECCENTRICITY":"0.00016730","MEAN_MOTION":"15.06404978","ELEMENT_SET_NO":"999","DECAY_DATE":null,"MEAN_MOTION_DOT":"0.00001868","ARG_OF_PERICENTER":"111.7980","OBJECT_NAME":"STARLINK-2436","LAUNCH_DATE":"2021-04-07","CLASSIFICATION_TYPE":"U","EPHEMERIS_TYPE":"0","TLE_LINE2":"2 48101  53.0550 278.7093 0001673 111.7980 248.3187 15.06404978 99414"},{"FILE":"3748322","APOAPSIS":"548.008","OBJECT_ID":"2021-027L","EPOCH":"2023-01-15T22:48:15.529536","INCLINATION":"53.0523","PERIAPSIS":"546.310","GP_ID":"223147131","TIME_SYSTEM":"UTC","MEAN_ELEMENT_THEORY":"SGP4","CENTER_NAME":"EARTH","TLE_LINE1":"1 48102U 21027L   23015.95017974  .00008506  00000-0  58898-3 0  9990","RA_OF_ASC_NODE":"268.5087","SITE":"AFETR","BSTAR":"0.00058898000000","RCS_SIZE":"LARGE","REV_AT_EPOCH":"9955","MEAN_ANOMALY":"261.8738","NORAD_CAT_ID":"48102","DECAY_DATE":null,"ARG_OF_PERICENTER":"98.2390","MEAN_MOTION_DOT":"0.00008506","OBJECT_NAME":"STARLINK-2437","LAUNCH_DATE":"2021-04-07","CLASSIFICATION_TYPE":"U","EPHEMERIS_TYPE":"0","TLE_LINE2":"2 48102  53.0523 268.5087 0001226  98.2390 261.8738 15.06417942 99555","PERIOD":"95.591","COUNTRY_CODE":"US","SEMIMAJOR_AXIS":"6925.294","REF_FRAME":"TEME","OBJECT_TYPE":"PAYLOAD","MEAN_MOTION_DDOT":"0.0000000000000","ECCENTRICITY":"0.00012260","MEAN_MOTION":"15.06417942","ELEMENT_SET_NO":"999"},{"REV_AT_EPOCH":"9954","NORAD_CAT_ID":"48103","MEAN_ANOMALY":"266.7489","RCS_SIZE":"MEDIUM","BSTAR":"0.00023656000000","CENTER_NAME":"EARTH","MEAN_ELEMENT_THEORY":"SGP4","RA_OF_ASC_NODE":"268.8043","TLE_LINE1":"1 48103U 21027M   23015.89384101  .00003249  00000-0  23656-3 0  9996","SITE":"AFETR","GP_ID":"223147381","TIME_SYSTEM":"UTC","PERIAPSIS":"546.084","INCLINATION":"53.0537","OBJECT_ID":"2021-027M","APOAPSIS":"548.012","EPOCH":"2023-01-15T21:27:07.863264","FILE":"3748322","MEAN_MOTION":"15.06454088","ELEMENT_SET_NO":"999","ECCENTRICITY":"0.00013920","OBJECT_TYPE":"PAYLOAD","MEAN_MOTION_DDOT":"0.0000000000000","REF_FRAME":"TEME","COUNTRY_CODE":"US","SEMIMAJOR_AXIS":"6925.183","PERIOD":"95.589","TLE_LINE2":"2 48103  53.0537 268.8043 0001392  93.3659 266.7489 15.06454088 99542","CLASSIFICATION_TYPE":"U","EPHEMERIS_TYPE":"0","LAUNCH_DATE":"2021-04-07","OBJECT_NAME":"STARLINK-2438","DECAY_DATE":null,"ARG_OF_PERICENTER":"93.3659","MEAN_MOTION_DOT":"0.00003249"},{"EPHEMERIS_TYPE":"0","CLASSIFICATION_TYPE":"U","TLE_LINE2":"2 48104  53.0525 273.7204 0001563  87.0922 273.0245 15.06407667 99482","ARG_OF_PERICENTER":"87.0922","MEAN_MOTION_DOT":"0.00010566","DECAY_DATE":null,"OBJECT_NAME":"STARLINK-2439","LAUNCH_DATE":"2021-04-07","MEAN_MOTION_DDOT":"0.0000000000000","OBJECT_TYPE":"PAYLOAD","ECCENTRICITY":"0.00015630","ELEMENT_SET_NO":"999","MEAN_MOTION":"15.06407667","SEMIMAJOR_AXIS":"6925.325","COUNTRY_CODE":"US","PERIOD":"95.592","REF_FRAME":"TEME","INCLINATION":"53.0525","PERIAPSIS":"546.108","TIME_SYSTEM":"UTC","GP_ID":"223147633","FILE":"3748322","APOAPSIS":"548.272","OBJECT_ID":"2021-027N","EPOCH":"2023-01-15T21:41:15.433440","RCS_SIZE":"LARGE","MEAN_ANOMALY":"273.0245","NORAD_CAT_ID":"48104","REV_AT_EPOCH":"9948","TLE_LINE1":"1 48104U 21027N   23015.90365085  .00010566  00000-0  72704-3 0  9997","RA_OF_ASC_NODE":"273.7204","SITE":"AFETR","MEAN_ELEMENT_THEORY":"SGP4","CENTER_NAME":"EARTH","BSTAR":"0.00072704000000"},{"SITE":"AFETR","TLE_LINE1":"1 48105U 21027P   23015.87738519  .00002909  00000-0  21409-3 0  9998","RA_OF_ASC_NODE":"218.8397","CENTER_NAME":"EARTH","MEAN_ELEMENT_THEORY":"SGP4","BSTAR":"0.00021409000000","RCS_SIZE":"LARGE","NORAD_CAT_ID":"48105","MEAN_ANOMALY":"267.9853","REV_AT_EPOCH":"10024","FILE":"3748322","APOAPSIS":"548.320","EPOCH":"2023-01-15T21:03:26.080416","OBJECT_ID":"2021-027P","PERIAPSIS":"546.068","INCLINATION":"53.0522","TIME_SYSTEM":"UTC","GP_ID":"223147882","COUNTRY_CODE":"US","SEMIMAJOR_AXIS":"6925.329","PERIOD":"95.592","REF_FRAME":"TEME","ECCENTRICITY":"0.00016260","OBJECT_TYPE":"PAYLOAD","MEAN_MOTION_DDOT":"0.0000000000000","ELEMENT_SET_NO":"999","MEAN_MOTION":"15.06406390","ARG_OF_PERICENTER":"92.1322","MEAN_MOTION_DOT":"0.00002909","DECAY_DATE":null,"LAUNCH_DATE":"2021-04-07","OBJECT_NAME":"STARLINK-2440","EPHEMERIS_TYPE":"0","CLASSIFICATION_TYPE":"U","TLE_LINE2":"2 48105  53.0522 218.8397 0001626  92.1322 267.9853 15.06406390100240"},{"FILE":"3748322","APOAPSIS":"548.214","OBJECT_ID":"2021-027Q","EPOCH":"2023-01-15T22:16:23.539872","INCLINATION":"53.0540","PERIAPSIS":"546.339","GP_ID":"223146632","TIME_SYSTEM":"UTC","MEAN_ELEMENT_THEORY":"SGP4","CENTER_NAME":"EARTH","TLE_LINE1":"1 48106U 21027Q   23015.92805023 -.00008550  00000-0 -55610-3 0  9991","RA_OF_ASC_NODE":"268.6278","SITE":"AFETR","BSTAR":"-0.00055610000000","RCS_SIZE":"LARGE","REV_AT_EPOCH":"9955","MEAN_ANOMALY":"251.4355","NORAD_CAT_ID":"48106","DECAY_DATE":null,"MEAN_MOTION_DOT":"-0.00008550","ARG_OF_PERICENTER":"108.6781","OBJECT_NAME":"STARLINK-2442","LAUNCH_DATE":"2021-04-07","CLASSIFICATION_TYPE":"U","EPHEMERIS_TYPE":"0","TLE_LINE2":"2 48106  53.0540 268.6278 0001354 108.6781 251.4355 15.06379506 99556","COUNTRY_CODE":"US","PERIOD":"95.593","SEMIMAJOR_AXIS":"6925.411","REF_FRAME":"TEME","OBJECT_TYPE":"PAYLOAD","MEAN_MOTION_DDOT":"0.0000000000000","ECCENTRICITY":"0.00013540","MEAN_MOTION":"15.06379506","ELEMENT_SET_NO":"999"},{"TLE_LINE2":"2 48107  53.0526 268.8480 0001541  76.5215 283.5945 15.06397807 99545","EPHEMERIS_TYPE":"0","CLASSIFICATION_TYPE":"U","LAUNCH_DATE":"2021-04-07","OBJECT_NAME":"STARLINK-2443","ARG_OF_PERICENTER":"76.5215","MEAN_MOTION_DOT":"0.00000957","DECAY_DATE":null,"ELEMENT_SET_NO":"999","MEAN_MOTION":"15.06397807","ECCENTRICITY":"0.00015410","MEAN_MOTION_DDOT":"0.0000000000000","OBJECT_TYPE":"PAYLOAD","REF_FRAME":"TEME","COUNTRY_CODE":"US","PERIOD":"95.592","SEMIMAJOR_AXIS":"6925.355","TIME_SYSTEM":"UTC","GP_ID":"223146882","PERIAPSIS":"546.153","INCLINATION":"53.0526","APOAPSIS":"548.287","OBJECT_ID":"2021-027R","EPOCH":"2023-01-15T21:02:05.231616","FILE":"3748322","NORAD_CAT_ID":"48107","MEAN_ANOMALY":"283.5945","REV_AT_EPOCH":"9954","RCS_SIZE":"LARGE","BSTAR":"0.00008311400000","SITE":"AFETR","TLE_LINE1":"1 48107U 21027R   23015.87644944  .00000957  00000-0  83114-4 0  9991","RA_OF_ASC_NODE":"268.8480","CENTER_NAME":"EARTH","MEAN_ELEMENT_THEORY":"SGP4"},{"EPOCH":"2023-01-15T21:59:10.189824","APOAPSIS":"548.494","OBJECT_ID":"2021-027S","FILE":"3748322","GP_ID":"223148133","TIME_SYSTEM":"UTC","PERIAPSIS":"545.918","INCLINATION":"53.0515","BSTAR":"0.00022773000000","CENTER_NAME":"EARTH","MEAN_ELEMENT_THEORY":"SGP4","TLE_LINE1":"1 48108U 21027S   23015.91609016  .00003112  00000-0  22773-3 0  9997","RA_OF_ASC_NODE":"278.6670","SITE":"AFETR","REV_AT_EPOCH":"9940","NORAD_CAT_ID":"48108","MEAN_ANOMALY":"272.4933","RCS_SIZE":"LARGE","LAUNCH_DATE":"2021-04-07","OBJECT_NAME":"STARLINK-2444","DECAY_DATE":null,"MEAN_MOTION_DOT":"0.00003112","ARG_OF_PERICENTER":"87.6269","TLE_LINE2":"2 48108  53.0515 278.6670 0001860  87.6269 272.4933 15.06402460 99401","CLASSIFICATION_TYPE":"U","EPHEMERIS_TYPE":"0","REF_FRAME":"TEME","PERIOD":"95.592","COUNTRY_CODE":"US","SEMIMAJOR_AXIS":"6925.341","MEAN_MOTION":"15.06402460","ELEMENT_SET_NO":"999","ECCENTRICITY":"0.00018600","OBJECT_TYPE":"PAYLOAD","MEAN_MOTION_DDOT":"0.0000000000000"},{"ELEMENT_SET_NO":"999","MEAN_MOTION":"15.06412055","MEAN_MOTION_DDOT":"0.0000000000000","OBJECT_TYPE":"PAYLOAD","ECCENTRICITY":"0.00018590","REF_FRAME":"TEME","COUNTRY_CODE":"US","SEMIMAJOR_AXIS":"6925.312","PERIOD":"95.591","TLE_LINE2":"2 48109  53.0510 288.6114 0001859  90.5090 269.6112 15.06412055 99277","EPHEMERIS_TYPE":"0","CLASSIFICATION_TYPE":"U","OBJECT_NAME":"STARLINK-2445","LAUNCH_DATE":"2021-04-07","MEAN_MOTION_DOT":"0.00010781","ARG_OF_PERICENTER":"90.5090","DECAY_DATE":null,"MEAN_ANOMALY":"269.6112","NORAD_CAT_ID":"48109","REV_AT_EPOCH":"9927","RCS_SIZE":"LARGE","BSTAR":"0.00074134000000","TLE_LINE1":"1 48109U 21027T   23015.92990545  .00010781  00000-0  74134-3 0  9997","RA_OF_ASC_NODE":"288.6114","SITE":"AFETR","MEAN_ELEMENT_THEORY":"SGP4","CENTER_NAME":"EARTH","TIME_SYSTEM":"UTC","GP_ID":"223148382","INCLINATION":"53.0510","PERIAPSIS":"545.889","APOAPSIS":"548.464","EPOCH":"2023-01-15T22:19:03.830880","OBJECT_ID":"2021-027T","FILE":"3748322"},{"TLE_LINE2":"2 48110  53.0549 278.7234 0000836  67.0471 293.0606 15.06389386 99415","CLASSIFICATION_TYPE":"U","EPHEMERIS_TYPE":"0","LAUNCH_DATE":"2021-04-07","OBJECT_NAME":"STARLINK-2447","DECAY_DATE":null,"ARG_OF_PERICENTER":"67.0471","MEAN_MOTION_DOT":"0.00003545","MEAN_MOTION":"15.06389386","ELEMENT_SET_NO":"999","ECCENTRICITY":"0.00008360","MEAN_MOTION_DDOT":"0.0000000000000","OBJECT_TYPE":"PAYLOAD","REF_FRAME":"TEME","COUNTRY_CODE":"US","SEMIMAJOR_AXIS":"6925.381","PERIOD":"95.593","GP_ID":"223147132","TIME_SYSTEM":"UTC","PERIAPSIS":"546.667","INCLINATION":"53.0549","APOAPSIS":"547.825","OBJECT_ID":"2021-027U","EPOCH":"2023-01-15T21:43:15.361824","FILE":"3748322","REV_AT_EPOCH":"9941","NORAD_CAT_ID":"48110","MEAN_ANOMALY":"293.0606","RCS_SIZE":"LARGE","BSTAR":"0.00025679000000","CENTER_NAME":"EARTH","MEAN_ELEMENT_THEORY":"SGP4","RA_OF_ASC_NODE":"278.7234","TLE_LINE1":"1 48110U 21027U   23015.90503891  .00003545  00000-0  25679-3 0  9991","SITE":"AFETR"}];
